{"fetched_at":"2026-07-17T06:37:53.254Z","source":"https://celestrak.org/NORAD/elements/gp.php?GROUP=planet&FORMAT=JSON","constellation":"superdove","records":[{"OBJECT_NAME":"FLOCK 4BE-3","OBJECT_ID":"2024-149CX","EPOCH":"2026-07-16T11:28:33.178656","CLASSIFICATION_TYPE":"U","MEAN_MOTION":15.42419979,"ECCENTRICITY":0.0005182,"INCLINATION":97.3691,"RA_OF_ASC_NODE":281.6872,"ARG_OF_PERICENTER":164.8359,"MEAN_ANOMALY":195.3044,"EPHEMERIS_TYPE":0,"NORAD_CAT_ID":60561,"ELEMENT_SET_NO":999,"REV_AT_EPOCH":10685,"BSTAR":0.00023371,"MEAN_MOTION_DOT":0.0001002,"MEAN_MOTION_DDOT":0},{"OBJECT_NAME":"FLOCK 4BE-19","OBJECT_ID":"2024-149CZ","EPOCH":"2026-07-16T04:56:37.375296","CLASSIFICATION_TYPE":"U","MEAN_MOTION":15.45681082,"ECCENTRICITY":0.0006111,"INCLINATION":97.3745,"RA_OF_ASC_NODE":283.1013,"ARG_OF_PERICENTER":172.0474,"MEAN_ANOMALY":188.0873,"EPHEMERIS_TYPE":0,"NORAD_CAT_ID":60563,"ELEMENT_SET_NO":999,"REV_AT_EPOCH":10690,"BSTAR":0.00031078,"MEAN_MOTION_DOT":0.00014924,"MEAN_MOTION_DDOT":0},{"OBJECT_NAME":"FLOCK 4G-8","OBJECT_ID":"2025-009E","EPOCH":"2026-07-16T15:30:48.223872","CLASSIFICATION_TYPE":"U","MEAN_MOTION":15.30260033,"ECCENTRICITY":0.00042,"INCLINATION":97.4004,"RA_OF_ASC_NODE":279.5366,"ARG_OF_PERICENTER":186.7959,"MEAN_ANOMALY":173.3225,"EPHEMERIS_TYPE":0,"NORAD_CAT_ID":62613,"ELEMENT_SET_NO":999,"REV_AT_EPOCH":8342,"BSTAR":0.00020078,"MEAN_MOTION_DOT":0.00005802,"MEAN_MOTION_DDOT":0},{"OBJECT_NAME":"FLOCK 4G-13","OBJECT_ID":"2025-009N","EPOCH":"2026-07-16T04:42:53.756928","CLASSIFICATION_TYPE":"U","MEAN_MOTION":15.49004762,"ECCENTRICITY":0.0006616,"INCLINATION":97.3949,"RA_OF_ASC_NODE":281.0735,"ARG_OF_PERICENTER":195.8562,"MEAN_ANOMALY":164.2482,"EPHEMERIS_TYPE":0,"NORAD_CAT_ID":62621,"ELEMENT_SET_NO":999,"REV_AT_EPOCH":8348,"BSTAR":0.00089498047,"MEAN_MOTION_DOT":0.00048609,"MEAN_MOTION_DDOT":0},{"OBJECT_NAME":"FLOCK 4G-9","OBJECT_ID":"2025-009P","EPOCH":"2026-07-16T11:23:05.148096","CLASSIFICATION_TYPE":"U","MEAN_MOTION":15.28521551,"ECCENTRICITY":0.0004221,"INCLINATION":97.3957,"RA_OF_ASC_NODE":278.2158,"ARG_OF_PERICENTER":199.9371,"MEAN_ANOMALY":160.1704,"EPHEMERIS_TYPE":0,"NORAD_CAT_ID":62622,"ELEMENT_SET_NO":999,"REV_AT_EPOCH":8333,"BSTAR":0.00016965,"MEAN_MOTION_DOT":0.00004633,"MEAN_MOTION_DDOT":0},{"OBJECT_NAME":"FLOCK 4G-7","OBJECT_ID":"2025-009R","EPOCH":"2026-07-16T04:09:07.289856","CLASSIFICATION_TYPE":"U","MEAN_MOTION":15.29885991,"ECCENTRICITY":0.00027037,"INCLINATION":97.3942,"RA_OF_ASC_NODE":278.3351,"ARG_OF_PERICENTER":178.776,"MEAN_ANOMALY":181.3488,"EPHEMERIS_TYPE":0,"NORAD_CAT_ID":62624,"ELEMENT_SET_NO":999,"REV_AT_EPOCH":8333,"BSTAR":0.00018140482,"MEAN_MOTION_DOT":0.00005173,"MEAN_MOTION_DDOT":0},{"OBJECT_NAME":"FLOCK 4G-12","OBJECT_ID":"2025-009S","EPOCH":"2026-07-16T11:53:20.863104","CLASSIFICATION_TYPE":"U","MEAN_MOTION":15.29787787,"ECCENTRICITY":0.0004308,"INCLINATION":97.402,"RA_OF_ASC_NODE":279.2065,"ARG_OF_PERICENTER":184.27,"MEAN_ANOMALY":175.8504,"EPHEMERIS_TYPE":0,"NORAD_CAT_ID":62625,"ELEMENT_SET_NO":999,"REV_AT_EPOCH":8338,"BSTAR":0.00020588,"MEAN_MOTION_DOT":0.00005864,"MEAN_MOTION_DDOT":0},{"OBJECT_NAME":"FLOCK 4G-11","OBJECT_ID":"2025-009W","EPOCH":"2026-07-16T11:31:24.885696","CLASSIFICATION_TYPE":"U","MEAN_MOTION":15.2989794,"ECCENTRICITY":0.0002817,"INCLINATION":97.3921,"RA_OF_ASC_NODE":278.7481,"ARG_OF_PERICENTER":180.3948,"MEAN_ANOMALY":179.7291,"EPHEMERIS_TYPE":0,"NORAD_CAT_ID":62629,"ELEMENT_SET_NO":999,"REV_AT_EPOCH":8339,"BSTAR":0.00020537,"MEAN_MOTION_DOT":0.00005869,"MEAN_MOTION_DDOT":0},{"OBJECT_NAME":"FLOCK 4G-26","OBJECT_ID":"2025-009AA","EPOCH":"2026-07-16T11:50:44.145600","CLASSIFICATION_TYPE":"U","MEAN_MOTION":15.30088653,"ECCENTRICITY":0.0003808,"INCLINATION":97.4016,"RA_OF_ASC_NODE":279.3662,"ARG_OF_PERICENTER":173.7922,"MEAN_ANOMALY":186.3366,"EPHEMERIS_TYPE":0,"NORAD_CAT_ID":62633,"ELEMENT_SET_NO":999,"REV_AT_EPOCH":8339,"BSTAR":0.00022984,"MEAN_MOTION_DOT":0.00006617,"MEAN_MOTION_DDOT":0},{"OBJECT_NAME":"FLOCK 4G-28","OBJECT_ID":"2025-009AB","EPOCH":"2026-07-16T04:39:33.891264","CLASSIFICATION_TYPE":"U","MEAN_MOTION":15.35290771,"ECCENTRICITY":0.00022205,"INCLINATION":97.4028,"RA_OF_ASC_NODE":281.8608,"ARG_OF_PERICENTER":159.8749,"MEAN_ANOMALY":200.2583,"EPHEMERIS_TYPE":0,"NORAD_CAT_ID":62634,"ELEMENT_SET_NO":999,"REV_AT_EPOCH":8353,"BSTAR":0.0001404013,"MEAN_MOTION_DOT":0.00004729,"MEAN_MOTION_DDOT":0},{"OBJECT_NAME":"FLOCK 4G-24","OBJECT_ID":"2025-009AE","EPOCH":"2026-07-16T04:15:49.360896","CLASSIFICATION_TYPE":"U","MEAN_MOTION":15.3037837,"ECCENTRICITY":0.00038144,"INCLINATION":97.4025,"RA_OF_ASC_NODE":279.3569,"ARG_OF_PERICENTER":162.8209,"MEAN_ANOMALY":197.3161,"EPHEMERIS_TYPE":0,"NORAD_CAT_ID":62637,"ELEMENT_SET_NO":999,"REV_AT_EPOCH":8336,"BSTAR":0.00018704482,"MEAN_MOTION_DOT":0.00005419,"MEAN_MOTION_DDOT":0},{"OBJECT_NAME":"FLOCK 4G-3","OBJECT_ID":"2025-009AG","EPOCH":"2026-07-16T16:39:56.831328","CLASSIFICATION_TYPE":"U","MEAN_MOTION":15.29893415,"ECCENTRICITY":0.0003422,"INCLINATION":97.4023,"RA_OF_ASC_NODE":279.579,"ARG_OF_PERICENTER":166.3521,"MEAN_ANOMALY":193.7812,"EPHEMERIS_TYPE":0,"NORAD_CAT_ID":62639,"ELEMENT_SET_NO":999,"REV_AT_EPOCH":8341,"BSTAR":0.00022837,"MEAN_MOTION_DOT":0.00006534,"MEAN_MOTION_DDOT":0},{"OBJECT_NAME":"FLOCK 4G-27","OBJECT_ID":"2025-009AJ","EPOCH":"2026-07-16T04:34:42.997152","CLASSIFICATION_TYPE":"U","MEAN_MOTION":15.29818215,"ECCENTRICITY":0.00026475,"INCLINATION":97.3935,"RA_OF_ASC_NODE":278.4242,"ARG_OF_PERICENTER":166.8563,"MEAN_ANOMALY":193.2747,"EPHEMERIS_TYPE":0,"NORAD_CAT_ID":62641,"ELEMENT_SET_NO":999,"REV_AT_EPOCH":8333,"BSTAR":0.0001798094,"MEAN_MOTION_DOT":0.00005116,"MEAN_MOTION_DDOT":0},{"OBJECT_NAME":"FLOCK 4G-29","OBJECT_ID":"2025-009AK","EPOCH":"2026-07-16T04:13:33.985920","CLASSIFICATION_TYPE":"U","MEAN_MOTION":15.29870739,"ECCENTRICITY":0.0003517,"INCLINATION":97.402,"RA_OF_ASC_NODE":279.0224,"ARG_OF_PERICENTER":163.8518,"MEAN_ANOMALY":196.2835,"EPHEMERIS_TYPE":0,"NORAD_CAT_ID":62642,"ELEMENT_SET_NO":999,"REV_AT_EPOCH":8333,"BSTAR":0.00016516,"MEAN_MOTION_DOT":0.00004701,"MEAN_MOTION_DDOT":0},{"OBJECT_NAME":"FLOCK 4G-22","OBJECT_ID":"2025-009AN","EPOCH":"2026-07-16T04:40:13.679328","CLASSIFICATION_TYPE":"U","MEAN_MOTION":15.29784625,"ECCENTRICITY":0.0003051,"INCLINATION":97.4007,"RA_OF_ASC_NODE":279.0748,"ARG_OF_PERICENTER":159.8071,"MEAN_ANOMALY":200.329,"EPHEMERIS_TYPE":0,"NORAD_CAT_ID":62645,"ELEMENT_SET_NO":999,"REV_AT_EPOCH":8335,"BSTAR":0.0001987,"MEAN_MOTION_DOT":0.00005656,"MEAN_MOTION_DDOT":0},{"OBJECT_NAME":"FLOCK 4G-25","OBJECT_ID":"2025-009AP","EPOCH":"2026-07-16T05:36:22.506912","CLASSIFICATION_TYPE":"U","MEAN_MOTION":15.30021332,"ECCENTRICITY":0.0002501,"INCLINATION":97.4015,"RA_OF_ASC_NODE":279.1928,"ARG_OF_PERICENTER":160.2965,"MEAN_ANOMALY":199.8372,"EPHEMERIS_TYPE":0,"NORAD_CAT_ID":62646,"ELEMENT_SET_NO":999,"REV_AT_EPOCH":8336,"BSTAR":0.00019459,"MEAN_MOTION_DOT":0.00005578,"MEAN_MOTION_DDOT":0}]}
