FLOCK 4BE-3             
1 60561U 24149CX  26197.47816179  .00010020  00000+0  23371-3 0  9997
2 60561  97.3691 281.6872 0005182 164.8359 195.3044 15.42419979106858
FLOCK 4BE-19            
1 60563U 24149CZ  26197.20598814  .00014924  00000+0  31078-3 0  9993
2 60563  97.3745 283.1013 0006111 172.0474 188.0873 15.45681082106900
FLOCK 4G-8              
1 62613U 25009E   26197.64639148  .00005802  00000+0  20078-3 0  9994
2 62613  97.4004 279.5366 0004200 186.7959 173.3225 15.30260033 83426
FLOCK 4G-13             
1 62621U 25009N   26197.19645552  .00048609  00000+0  89498-3 0  9992
2 62621  97.3949 281.0735 0006616 195.8562 164.2482 15.49004762 83489
FLOCK 4G-9              
1 62622U 25009P   26197.47436514  .00004633  00000+0  16965-3 0  9998
2 62622  97.3957 278.2158 0004221 199.9371 160.1704 15.28521551 83332
FLOCK 4G-7              
1 62624U 25009R   26197.17300104  .00005173  00000+0  18140-3 0  9999
2 62624  97.3942 278.3351 0002703 178.7760 181.3488 15.29885991 83330
FLOCK 4G-12             
1 62625U 25009S   26197.49538036  .00005864  00000+0  20588-3 0  9998
2 62625  97.4020 279.2065 0004308 184.2700 175.8504 15.29787787 83386
FLOCK 4G-11             
1 62629U 25009W   26197.48014914  .00005869  00000+0  20537-3 0  9994
2 62629  97.3921 278.7481 0002817 180.3948 179.7291 15.29897940 83399
FLOCK 4G-26             
1 62633U 25009AA  26197.49356650  .00006617  00000+0  22984-3 0  9996
2 62633  97.4016 279.3662 0003808 173.7922 186.3366 15.30088653 83399
FLOCK 4G-28             
1 62634U 25009AB  26197.19414226  .00004729  00000+0  14040-3 0  9994
2 62634  97.4028 281.8608 0002220 159.8749 200.2583 15.35290771 83534
FLOCK 4G-24             
1 62637U 25009AE  26197.17765464  .00005419  00000+0  18704-3 0  9996
2 62637  97.4025 279.3569 0003814 162.8209 197.3161 15.30378370 83363
FLOCK 4G-3              
1 62639U 25009AG  26197.69440777  .00006534  00000+0  22837-3 0  9993
2 62639  97.4023 279.5790 0003422 166.3521 193.7812 15.29893415 83411
FLOCK 4G-27             
1 62641U 25009AJ  26197.19077543  .00005116  00000+0  17981-3 0  9997
2 62641  97.3935 278.4242 0002647 166.8563 193.2747 15.29818215 83332
FLOCK 4G-29             
1 62642U 25009AK  26197.17608780  .00004701  00000+0  16516-3 0  9991
2 62642  97.4020 279.0224 0003517 163.8518 196.2835 15.29870739 83330
FLOCK 4G-22             
1 62645U 25009AN  26197.19460277  .00005656  00000+0  19870-3 0  9999
2 62645  97.4007 279.0748 0003051 159.8071 200.3290 15.29784625 83353
FLOCK 4G-25             
1 62646U 25009AP  26197.23359383  .00005578  00000+0  19459-3 0  9996
2 62646  97.4015 279.1928 0002501 160.2965 199.8372 15.30021332 83366
